{
  "type": "FeatureCollection",
  "features": [
    {
      "type": "Feature",
      "properties": {
        "norad_id": 66517,
        "name": "STARLINK-35937",
        "group": "last-30-days",
        "lat": 29.87174723022552,
        "lon": -122.01120703728178,
        "alt_km": 357.14077575309693,
        "timestamp": "2025-12-05T14:45:14.101521+00:00",
        "meta_object_name": "STARLINK-35937",
        "meta_object_id": "2025-265B",
        "meta_epoch": "2025-12-04T18:00:02.000160",
        "meta_mean_motion": 15.7274681,
        "meta_eccentricity": 0.0001231,
        "meta_inclination": 42.9999,
        "meta_ra_of_asc_node": 101.2571,
        "meta_arg_of_pericenter": 272.5739,
        "meta_mean_anomaly": 3.8786,
        "meta_ephemeris_type": 0,
        "meta_classification_type": "U",
        "meta_norad_cat_id": 66517,
        "meta_element_set_no": 999,
        "meta_rev_at_epoch": 371,
        "meta_bstar": -0.015055,
        "meta_mean_motion_dot": -0.01829592,
        "meta_mean_motion_ddot": 0,
        "tle_line1": "1 66517U 25265B   25338.75002315 -.01829592  00000+0 -15055-1 0  9993",
        "tle_line2": "2 66517  42.9999 101.2571 0001231 272.5739   3.8786 15.72746810  3712"
      },
      "geometry": {
        "type": "Point",
        "coordinates": [
          -122.01120703728178,
          29.87174723022552
        ]
      }
    },
    {
      "type": "Feature",
      "properties": {
        "norad_id": 66518,
        "name": "STARLINK-35962",
        "group": "last-30-days",
        "lat": 28.83078289851006,
        "lon": -120.17199720194924,
        "alt_km": 357.41331463010283,
        "timestamp": "2025-12-05T14:45:14.101531+00:00",
        "meta_object_name": "STARLINK-35962",
        "meta_object_id": "2025-265C",
        "meta_epoch": "2025-12-04T18:00:02.000160",
        "meta_mean_motion": 15.72751749,
        "meta_eccentricity": 0.0001503,
        "meta_inclination": 42.9998,
        "meta_ra_of_asc_node": 101.252,
        "meta_arg_of_pericenter": 270.9511,
        "meta_mean_anomaly": 7.4142,
        "meta_ephemeris_type": 0,
        "meta_classification_type": "U",
        "meta_norad_cat_id": 66518,
        "meta_element_set_no": 999,
        "meta_rev_at_epoch": 371,
        "meta_bstar": -0.015085,
        "meta_mean_motion_dot": -0.01833336,
        "meta_mean_motion_ddot": 0,
        "tle_line1": "1 66518U 25265C   25338.75002315 -.01833336  00000+0 -15085-1 0  9998",
        "tle_line2": "2 66518  42.9998 101.2520 0001503 270.9511   7.4142 15.72751749  3711"
      },
      "geometry": {
        "type": "Point",
        "coordinates": [
          -120.17199720194924,
          28.83078289851006
        ]
      }
    },
    {
      "type": "Feature",
      "properties": {
        "norad_id": 66519,
        "name": "STARLINK-35931",
        "group": "last-30-days",
        "lat": 27.746887149764895,
        "lon": -118.33883536885983,
        "alt_km": 357.4579179346665,
        "timestamp": "2025-12-05T14:45:14.101544+00:00",
        "meta_object_name": "STARLINK-35931",
        "meta_object_id": "2025-265D",
        "meta_epoch": "2025-12-04T18:00:02.000160",
        "meta_mean_motion": 15.72715926,
        "meta_eccentricity": 0.0001403,
        "meta_inclination": 43,
        "meta_ra_of_asc_node": 101.2469,
        "meta_arg_of_pericenter": 273.9536,
        "meta_mean_anomaly": 6.3565,
        "meta_ephemeris_type": 0,
        "meta_classification_type": "U",
        "meta_norad_cat_id": 66519,
        "meta_element_set_no": 999,
        "meta_rev_at_epoch": 371,
        "meta_bstar": -0.014781,
        "meta_mean_motion_dot": -0.01798505,
        "meta_mean_motion_ddot": 0,
        "tle_line1": "1 66519U 25265D   25338.75002315 -.01798505  00000+0 -14781-1 0  9999",
        "tle_line2": "2 66519  43.0000 101.2469 0001403 273.9536   6.3565 15.72715926  3713"
      },
      "geometry": {
        "type": "Point",
        "coordinates": [
          -118.33883536885983,
          27.746887149764895
        ]
      }
    },
    {
      "type": "Feature",
      "properties": {
        "norad_id": 66520,
        "name": "STARLINK-35952",
        "group": "last-30-days",
        "lat": 26.66686572845961,
        "lon": -116.5871656828007,
        "alt_km": 357.778875024881,
        "timestamp": "2025-12-05T14:45:14.101554+00:00",
        "meta_object_name": "STARLINK-35952",
        "meta_object_id": "2025-265E",
        "meta_epoch": "2025-12-04T18:00:02.000160",
        "meta_mean_motion": 15.72741507,
        "meta_eccentricity": 0.0001412,
        "meta_inclination": 42.9998,
        "meta_ra_of_asc_node": 101.2416,
        "meta_arg_of_pericenter": 279.1737,
        "meta_mean_anomaly": 3.0326,
        "meta_ephemeris_type": 0,
        "meta_classification_type": "U",
        "meta_norad_cat_id": 66520,
        "meta_element_set_no": 999,
        "meta_rev_at_epoch": 371,
        "meta_bstar": -0.015001,
        "meta_mean_motion_dot": -0.01823595,
        "meta_mean_motion_ddot": 0,
        "tle_line1": "1 66520U 25265E   25338.75002315 -.01823595  00000+0 -15001-1 0  9995",
        "tle_line2": "2 66520  42.9998 101.2416 0001412 279.1737   3.0326 15.72741507  3715"
      },
      "geometry": {
        "type": "Point",
        "coordinates": [
          -116.5871656828007,
          26.66686572845961
        ]
      }
    },
    {
      "type": "Feature",
      "properties": {
        "norad_id": 66521,
        "name": "STARLINK-35915",
        "group": "last-30-days",
        "lat": 25.558389686496323,
        "lon": -114.85643739364424,
        "alt_km": 357.6155760000738,
        "timestamp": "2025-12-05T14:45:14.101564+00:00",
        "meta_object_name": "STARLINK-35915",
        "meta_object_id": "2025-265F",
        "meta_epoch": "2025-12-04T18:00:02.000160",
        "meta_mean_motion": 15.72749794,
        "meta_eccentricity": 0.0001026,
        "meta_inclination": 42.9999,
        "meta_ra_of_asc_node": 101.2371,
        "meta_arg_of_pericenter": 271.5064,
        "meta_mean_anomaly": 12.6094,
        "meta_ephemeris_type": 0,
        "meta_classification_type": "U",
        "meta_norad_cat_id": 66521,
        "meta_element_set_no": 999,
        "meta_rev_at_epoch": 371,
        "meta_bstar": -0.015067,
        "meta_mean_motion_dot": -0.01830907,
        "meta_mean_motion_ddot": 0,
        "tle_line1": "1 66521U 25265F   25338.75002315 -.01830907  00000+0 -15067-1 0  9993",
        "tle_line2": "2 66521  42.9999 101.2371 0001026 271.5064  12.6094 15.72749794  3711"
      },
      "geometry": {
        "type": "Point",
        "coordinates": [
          -114.85643739364424,
          25.558389686496323
        ]
      }
    },
    {
      "type": "Feature",
      "properties": {
        "norad_id": 66522,
        "name": "STARLINK-35946",
        "group": "last-30-days",
        "lat": 24.42851463141171,
        "lon": -113.15638502895138,
        "alt_km": 357.98304017272403,
        "timestamp": "2025-12-05T14:45:14.101577+00:00",
        "meta_object_name": "STARLINK-35946",
        "meta_object_id": "2025-265G",
        "meta_epoch": "2025-12-04T18:00:02.000160",
        "meta_mean_motion": 15.72749518,
        "meta_eccentricity": 0.0001354,
        "meta_inclination": 42.9998,
        "meta_ra_of_asc_node": 101.2323,
        "meta_arg_of_pericenter": 273.629,
        "meta_mean_anomaly": 12.4069,
        "meta_ephemeris_type": 0,
        "meta_classification_type": "U",
        "meta_norad_cat_id": 66522,
        "meta_element_set_no": 999,
        "meta_rev_at_epoch": 371,
        "meta_bstar": -0.015079,
        "meta_mean_motion_dot": -0.01832376,
        "meta_mean_motion_ddot": 0,
        "tle_line1": "1 66522U 25265G   25338.75002315 -.01832376  00000+0 -15079-1 0  9999",
        "tle_line2": "2 66522  42.9998 101.2323 0001354 273.6290  12.4069 15.72749518  3710"
      },
      "geometry": {
        "type": "Point",
        "coordinates": [
          -113.15638502895138,
          24.42851463141171
        ]
      }
    },
    {
      "type": "Feature",
      "properties": {
        "norad_id": 66523,
        "name": "STARLINK-35969",
        "group": "last-30-days",
        "lat": 23.276925872111512,
        "lon": -111.4828947398805,
        "alt_km": 358.0654455059248,
        "timestamp": "2025-12-05T14:45:14.101588+00:00",
        "meta_object_name": "STARLINK-35969",
        "meta_object_id": "2025-265H",
        "meta_epoch": "2025-12-04T18:00:02.000160",
        "meta_mean_motion": 15.7275098,
        "meta_eccentricity": 0.0001183,
        "meta_inclination": 42.9999,
        "meta_ra_of_asc_node": 101.227,
        "meta_arg_of_pericenter": 274.0178,
        "meta_mean_anomaly": 13.9335,
        "meta_ephemeris_type": 0,
        "meta_classification_type": "U",
        "meta_norad_cat_id": 66523,
        "meta_element_set_no": 999,
        "meta_rev_at_epoch": 371,
        "meta_bstar": -0.015089,
        "meta_mean_motion_dot": -0.01833358,
        "meta_mean_motion_ddot": 0,
        "tle_line1": "1 66523U 25265H   25338.75002315 -.01833358  00000+0 -15089-1 0  9992",
        "tle_line2": "2 66523  42.9999 101.2270 0001183 274.0178  13.9335 15.72750980  3710"
      },
      "geometry": {
        "type": "Point",
        "coordinates": [
          -111.4828947398805,
          23.276925872111512
        ]
      }
    }
  ]
}